{
  "type": "FeatureCollection",
  "features": [
    {
      "type": "Feature",
      "properties": {
        "norad_id": 29268,
        "name": "ARIRANG-2 (KOMPSAT-2)",
        "group": "resource",
        "lat": 13.5214363411071,
        "lon": 10.098879348740345,
        "alt_km": 680.687399835635,
        "timestamp": "2025-12-26T09:30:53.284335+00:00",
        "meta_object_name": "ARIRANG-2 (KOMPSAT-2)",
        "meta_object_id": "2006-031A",
        "meta_epoch": "2025-12-26T04:24:16.356096",
        "meta_mean_motion": 14.6450491,
        "meta_eccentricity": 0.001312,
        "meta_inclination": 97.8259,
        "meta_ra_of_asc_node": 188.0011,
        "meta_arg_of_pericenter": 262.8073,
        "meta_mean_anomaly": 221.6527,
        "meta_ephemeris_type": 0,
        "meta_classification_type": "U",
        "meta_norad_cat_id": 29268,
        "meta_element_set_no": 999,
        "meta_rev_at_epoch": 3615,
        "meta_bstar": 6.6679e-05,
        "meta_mean_motion_dot": 3.09e-06,
        "meta_mean_motion_ddot": 0,
        "tle_line1": "1 29268U 06031A   25360.18352264  .00000309  00000+0  66679-4 0  9993",
        "tle_line2": "2 29268  97.8259 188.0011 0013120 262.8073 221.6527 14.64504910 36157"
      },
      "geometry": {
        "type": "Point",
        "coordinates": [
          10.098879348740345,
          13.5214363411071
        ]
      }
    },
    {
      "type": "Feature",
      "properties": {
        "norad_id": 29709,
        "name": "LAPAN-TUBSAT",
        "group": "resource",
        "lat": 60.17822278532371,
        "lon": -23.60078429246568,
        "alt_km": 597.4783669373546,
        "timestamp": "2025-12-26T09:30:53.284346+00:00",
        "meta_object_name": "LAPAN-TUBSAT",
        "meta_object_id": "2007-001A",
        "meta_epoch": "2025-12-26T04:23:30.422400",
        "meta_mean_motion": 14.85689254,
        "meta_eccentricity": 0.0013123,
        "meta_inclination": 98.1266,
        "meta_ra_of_asc_node": 350.6164,
        "meta_arg_of_pericenter": 34.0239,
        "meta_mean_anomaly": 326.1814,
        "meta_ephemeris_type": 0,
        "meta_classification_type": "U",
        "meta_norad_cat_id": 29709,
        "meta_element_set_no": 999,
        "meta_rev_at_epoch": 2546,
        "meta_bstar": 7.4528e-05,
        "meta_mean_motion_dot": 5.9e-06,
        "meta_mean_motion_ddot": 0,
        "tle_line1": "1 29709U 07001A   25360.18299100  .00000590  00000+0  74528-4 0  9994",
        "tle_line2": "2 29709  98.1266 350.6164 0013123  34.0239 326.1814 14.85689254 25461"
      },
      "geometry": {
        "type": "Point",
        "coordinates": [
          -23.60078429246568,
          60.17822278532371
        ]
      }
    },
    {
      "type": "Feature",
      "properties": {
        "norad_id": 31113,
        "name": "HAIYANG-1B",
        "group": "resource",
        "lat": 38.90508426213722,
        "lon": 170.9045675560872,
        "alt_km": 793.1594349701845,
        "timestamp": "2025-12-26T09:30:53.284357+00:00",
        "meta_object_name": "HAIYANG-1B",
        "meta_object_id": "2007-010A",
        "meta_epoch": "2025-12-25T22:47:30.795072",
        "meta_mean_motion": 14.30969243,
        "meta_eccentricity": 0.0013551,
        "meta_inclination": 98.3331,
        "meta_ra_of_asc_node": 343.6829,
        "meta_arg_of_pericenter": 359.9847,
        "meta_mean_anomaly": 0.1334,
        "meta_ephemeris_type": 0,
        "meta_classification_type": "U",
        "meta_norad_cat_id": 31113,
        "meta_element_set_no": 999,
        "meta_rev_at_epoch": 97585,
        "meta_bstar": 6.0325e-05,
        "meta_mean_motion_dot": 1.17e-06,
        "meta_mean_motion_ddot": 0,
        "tle_line1": "1 31113U 07010A   25359.94966198  .00000117  00000+0  60325-4 0  9991",
        "tle_line2": "2 31113  98.3331 343.6829 0013551 359.9847   0.1334 14.30969243975859"
      },
      "geometry": {
        "type": "Point",
        "coordinates": [
          170.9045675560872,
          38.90508426213722
        ]
      }
    },
    {
      "type": "Feature",
      "properties": {
        "norad_id": 31598,
        "name": "COSMO-SKYMED 1",
        "group": "resource",
        "lat": 25.06394889272129,
        "lon": 9.60149059611125,
        "alt_km": 578.8396664033935,
        "timestamp": "2025-12-26T09:30:53.284368+00:00",
        "meta_object_name": "COSMO-SKYMED 1",
        "meta_object_id": "2007-023A",
        "meta_epoch": "2025-12-25T23:11:37.091328",
        "meta_mean_motion": 14.95861375,
        "meta_eccentricity": 0.00011837,
        "meta_inclination": 97.8839,
        "meta_ra_of_asc_node": 185.4531,
        "meta_arg_of_pericenter": 77.1821,
        "meta_mean_anomaly": 282.9532,
        "meta_ephemeris_type": 0,
        "meta_classification_type": "U",
        "meta_norad_cat_id": 31598,
        "meta_element_set_no": 999,
        "meta_rev_at_epoch": 388,
        "meta_bstar": 0.00028394322,
        "meta_mean_motion_dot": 3.114e-05,
        "meta_mean_motion_ddot": 0,
        "tle_line1": "1 31598U 07023A   25359.96640152  .00003114  00000+0  28394-3 0  9992",
        "tle_line2": "2 31598  97.8839 185.4531 0001183  77.1821 282.9532 14.95861375  3887"
      },
      "geometry": {
        "type": "Point",
        "coordinates": [
          9.60149059611125,
          25.06394889272129
        ]
      }
    },
    {
      "type": "Feature",
      "properties": {
        "norad_id": 31698,
        "name": "TERRASAR-X",
        "group": "resource",
        "lat": -54.9076736288766,
        "lon": 174.8515938532812,
        "alt_km": 516.645171269719,
        "timestamp": "2025-12-26T09:30:53.284381+00:00",
        "meta_object_name": "TERRASAR-X",
        "meta_object_id": "2007-026A",
        "meta_epoch": "2025-12-25T13:30:40.378176",
        "meta_mean_motion": 15.19155603,
        "meta_eccentricity": 0.0001851,
        "meta_inclination": 97.4447,
        "meta_ra_of_asc_node": 4.756,
        "meta_arg_of_pericenter": 79.9289,
        "meta_mean_anomaly": 280.2154,
        "meta_ephemeris_type": 0,
        "meta_classification_type": "U",
        "meta_norad_cat_id": 31698,
        "meta_element_set_no": 999,
        "meta_rev_at_epoch": 2686,
        "meta_bstar": 7.0738e-05,
        "meta_mean_motion_dot": 1.419e-05,
        "meta_mean_motion_ddot": 0,
        "tle_line1": "1 31698U 07026A   25359.56296734  .00001419  00000+0  70738-4 0  9991",
        "tle_line2": "2 31698  97.4447   4.7560 0001851  79.9289 280.2154 15.19155603 26865"
      },
      "geometry": {
        "type": "Point",
        "coordinates": [
          174.8515938532812,
          -54.9076736288766
        ]
      }
    },
    {
      "type": "Feature",
      "properties": {
        "norad_id": 32060,
        "name": "WORLDVIEW-1 (WV-1)",
        "group": "resource",
        "lat": 47.66966795329645,
        "lon": -54.140872805979676,
        "alt_km": 491.33173204408104,
        "timestamp": "2025-12-26T09:30:53.284393+00:00",
        "meta_object_name": "WORLDVIEW-1 (WV-1)",
        "meta_object_id": "2007-041A",
        "meta_epoch": "2025-12-25T21:54:28.538784",
        "meta_mean_motion": 15.23970328,
        "meta_eccentricity": 0.000309,
        "meta_inclination": 97.3821,
        "meta_ra_of_asc_node": 117.2002,
        "meta_arg_of_pericenter": 352.1251,
        "meta_mean_anomaly": 7.9937,
        "meta_ephemeris_type": 0,
        "meta_classification_type": "U",
        "meta_norad_cat_id": 32060,
        "meta_element_set_no": 999,
        "meta_rev_at_epoch": 1648,
        "meta_bstar": 0.00033312,
        "meta_mean_motion_dot": 7.994e-05,
        "meta_mean_motion_ddot": 0,
        "tle_line1": "1 32060U 07041A   25359.91283031  .00007994  00000+0  33312-3 0  9997",
        "tle_line2": "2 32060  97.3821 117.2002 0003090 352.1251   7.9937 15.23970328 16481"
      },
      "geometry": {
        "type": "Point",
        "coordinates": [
          -54.140872805979676,
          47.66966795329645
        ]
      }
    },
    {
      "type": "Feature",
      "properties": {
        "norad_id": 32289,
        "name": "YAOGAN-3",
        "group": "resource",
        "lat": 71.2635125410407,
        "lon": 2.9429174225732444,
        "alt_km": 590.452035934286,
        "timestamp": "2025-12-26T09:30:53.284405+00:00",
        "meta_object_name": "YAOGAN-3",
        "meta_object_id": "2007-055A",
        "meta_epoch": "2025-12-25T23:31:04.221408",
        "meta_mean_motion": 14.89920968,
        "meta_eccentricity": 0.00012468,
        "meta_inclination": 97.8358,
        "meta_ra_of_asc_node": 26.4842,
        "meta_arg_of_pericenter": 85.8961,
        "meta_mean_anomaly": 274.2399,
        "meta_ephemeris_type": 0,
        "meta_classification_type": "U",
        "meta_norad_cat_id": 32289,
        "meta_element_set_no": 999,
        "meta_rev_at_epoch": 98006,
        "meta_bstar": 0.0001541562,
        "meta_mean_motion_dot": 1.428e-05,
        "meta_mean_motion_ddot": 0,
        "tle_line1": "1 32289U 07055A   25359.97990997  .00001428  00000+0  15416-3 0  9998",
        "tle_line2": "2 32289  97.8358  26.4842 0001246  85.8961 274.2399 14.89920968980067"
      },
      "geometry": {
        "type": "Point",
        "coordinates": [
          2.9429174225732444,
          71.2635125410407
        ]
      }
    }
  ]
}